     2.100          NAVIGATION                              RINEX VERSION / TYPE
fic2rin                                 09/20/2016 02:02:58 PGM / RUN BY / DATE
                                                            END OF HEADER
 5 16  9 19 18  0  0.0 -.899941660464D-04  .261479726760D-11  .000000000000D+00
     .520000000000D+02 -.522500000000D+02  .492449083910D-08 -.408896301475D+00
    -.280141830444D-05  .475604820531D-02  .978447496891D-05  .515360167503D+04
     .151200000000D+06 -.186264514923D-08  .302318917276D+01  .104308128357D-06
     .946918404324D+00  .182593750000D+03  .510559653145D+00 -.827963059413D-08
    -.610382567741D-09  .100000000000D+01  .191500000000D+04  .000000000000D+00
     .240000000000D+01  .000000000000D+00 -.107102096081D-07  .520000000000D+02
     .144006000000D+06  .400000000000D+01
 6 16  9 19 18  0  0.0  .248547177762D-03  .511590769747D-11  .000000000000D+00
     .920000000000D+02  .696875000000D+01  .508414034628D-08 -.289791728278D+01
     .517815351486D-06  .207075267099D-03  .452995300293D-05  .515376182747D+04
     .151200000000D+06  .800937414169D-07  .198651785940D+01  .931322574615D-07
     .964824501133D+00  .294250000000D+03 -.152152135160D+01 -.848713923770D-08
     .151434879299D-09  .100000000000D+01  .191500000000D+04  .000000000000D+00
     .240000000000D+01  .000000000000D+00  .419095158577D-08  .920000000000D+02
     .144006000000D+06  .400000000000D+01
 7 16  9 19 18  0  0.0  .426013022661D-03 -.295585778076D-11  .000000000000D+00
     .820000000000D+02  .287187500000D+02  .475948396590D-08  .227119891029D+01
     .136531889439D-05  .100257731974D-01  .286847352982D-05  .515362524033D+04
     .151200000000D+06 -.208616256714D-06 -.112959775838D+01 -.391155481339D-07
     .964793601378D+00  .327593750000D+03 -.263070283739D+01 -.843427989304D-08
     .239295681911D-10  .100000000000D+01  .191500000000D+04  .000000000000D+00
     .240000000000D+01  .000000000000D+00 -.111758708954D-07  .820000000000D+02
     .144006000000D+06  .400000000000D+01
 8 16  9 19 18  0  0.0 -.324212014675D-04 -.147792889038D-11  .000000000000D+00
     .250000000000D+02  .200312500000D+02  .434518099423D-08 -.404567638060D+00
     .845640897751D-06  .173428840935D-02  .117272138596D-04  .515375391769D+04
     .151200000000D+06  .111758708954D-07  .933164917516D+00 -.111758708954D-07
     .964311274361D+00  .154781250000D+03 -.101569481922D+01 -.797068915405D-08
     .545737017852D-09  .100000000000D+01  .191500000000D+04  .000000000000D+00
     .240000000000D+01  .000000000000D+00  .512227416039D-08  .250000000000D+02
     .144006000000D+06  .400000000000D+01
 9 16  9 19 18  0  0.0  .209389720112D-03  .727595761418D-11  .000000000000D+00
     .550000000000D+02  .794062500000D+02  .455983279248D-08 -.124530315892D+01
     .410713255405D-05  .539555330761D-03  .108387321234D-04  .515378698730D+04
     .151200000000D+06  .372529029846D-08 -.220850918111D+01  .130385160446D-07
     .954551435413D+00  .165406250000D+03  .203188891336D+01 -.808533678673D-08
     .141434462742D-09  .100000000000D+01  .191500000000D+04  .000000000000D+00
     .240000000000D+01  .000000000000D+00  .139698386192D-08  .550000000000D+02
     .144006000000D+06  .400000000000D+01
10 16  9 19 18  0  0.0 -.994275324047D-04 -.443378667114D-11  .000000000000D+00
     .380000000000D+02 -.515000000000D+02  .468983820773D-08  .800281695905D+00
    -.263191759586D-05  .174297101330D-02  .103767961264D-04  .515368318939D+04
     .151200000000D+06  .745058059692D-07  .303272104958D+01 -.521540641785D-07
     .960106269948D+00  .176187500000D+03 -.285517712753D+01 -.816784022333D-08
    -.691100215669D-09  .100000000000D+01  .191500000000D+04  .000000000000D+00
     .240000000000D+01  .000000000000D+00  .232830643654D-08  .380000000000D+02
     .144006000000D+06  .400000000000D+01
11 16  9 19 18  0  0.0 -.664642080665D-03 -.125055521494D-11  .000000000000D+00
     .780000000000D+02  .455625000000D+02  .632954936542D-08  .237414610131D+01
     .219047069550D-05  .168274028692D-01  .525265932083D-05  .515367315483D+04
     .151200000000D+06  .178813934326D-06  .160964927903D+01 -.188127160072D-06
     .897573822021D+00  .240468750000D+03  .157486572455D+01 -.877536552920D-08
     .403588239642D-09  .100000000000D+01  .191500000000D+04  .000000000000D+00
     .340000000000D+01  .000000000000D+00 -.121071934700D-07  .780000000000D+02
     .144006000000D+06  .400000000000D+01
12 16  9 19 18  0  0.0  .388760119677D-03  .341060513165D-12  .000000000000D+00
     .770000000000D+02 -.886250000000D+02  .371979780165D-08  .167418702484D+01
    -.468268990517D-05  .603863084689D-02  .986456871033D-05  .515365963364D+04
     .151200000000D+06 -.139698386192D-06 -.511524213551D-01  .614672899246D-07
     .990440372251D+00  .202625000000D+03  .785579456983D+00 -.780282501898D-08
    -.313941648358D-09  .100000000000D+01  .191500000000D+04  .000000000000D+00
     .340000000000D+01  .000000000000D+00 -.125728547573D-07  .770000000000D+02
     .144006000000D+06  .400000000000D+01
13 16  9 19 18  0  0.0 -.446587800980D-04 -.216004991671D-11  .000000000000D+00
     .870000000000D+02  .103937500000D+03  .411517141341D-08 -.303203222728D+01
     .546686351299D-05  .401925935876D-02  .991299748421D-05  .515368999863D+04
     .151200000000D+06 -.558793544769D-08 -.208601472302D+01 -.130385160446D-07
     .970738799510D+00  .196531250000D+03  .195810358107D+01 -.782354016757D-08
     .168578450541D-09  .100000000000D+01  .191500000000D+04  .000000000000D+00
     .340000000000D+01  .000000000000D+00 -.111758708954D-07  .870000000000D+02
     .144006000000D+06  .400000000000D+01
14 16  9 19 18  0  0.0 -.358833931386D-04 -.193267624127D-11  .000000000000D+00
     .720000000000D+02  .114468750000D+03  .430160775066D-08 -.167728656643D+01
     .582821667194D-05  .877197936643D-02  .112149864435D-04  .515359127235D+04
     .151200000000D+06  .268220901489D-06 -.212380515200D+01  .596046447754D-07
     .963268273750D+00  .166375000000D+03 -.194534944286D+01 -.793640201157D-08
     .187507810453D-09  .100000000000D+01  .191500000000D+04  .000000000000D+00
     .240000000000D+01  .000000000000D+00 -.931322574615D-08  .720000000000D+02
     .144006000000D+06  .400000000000D+01
15 16  9 19 18  0  0.0 -.327894929796D-03 -.136424205266D-11  .000000000000D+00
     .740000000000D+02  .910625000000D+02  .500592280249D-08 -.195763728763D+01
     .465847551823D-05  .846016104333D-02  .106636434793D-04  .515367186546D+04
     .151200000000D+06 -.111758708954D-07 -.226393473351D+01 -.912696123123D-07
     .930293241510D+00  .159718750000D+03  .502756300355D+00 -.817819779762D-08
     .201079804352D-09  .100000000000D+01  .191500000000D+04  .000000000000D+00
     .240000000000D+01  .000000000000D+00 -.107102096081D-07  .740000000000D+02
     .144006000000D+06  .400000000000D+01
16 16  9 19 18  0  0.0  .717630609870D-05  .193267624127D-11  .000000000000D+00
     .540000000000D+02 -.100343750000D+03  .371515475111D-08 -.295181243415D+00
    -.505335628986D-05  .868151185568D-02  .955536961555D-05  .515357120705D+04
     .151200000000D+06  .147148966789D-06 -.323567723380D-01  .633299350739D-07
     .990943496111D+00  .209843750000D+03  .385548635100D+00 -.794675958586D-08
    -.312155859687D-09  .100000000000D+01  .191500000000D+04  .000000000000D+00
     .240000000000D+01  .000000000000D+00 -.107102096081D-07  .540000000000D+02
     .144006000000D+06  .400000000000D+01
17 16  9 19 18  0  0.0 -.202239025384D-03  .454747350886D-12  .000000000000D+00
     .410000000000D+02  .290937500000D+02  .411552857114D-08 -.122195095457D+01
     .179558992386D-05  .111651625484D-01  .105854123831D-04  .515375124168D+04
     .151200000000D+06  .596046447754D-07  .987336007422D+00  .240281224251D-06
     .977432110542D+00  .185906250000D+03 -.192330676085D+01 -.786425614926D-08
     .527521973408D-09  .100000000000D+01  .191500000000D+04  .000000000000D+00
     .240000000000D+01  .000000000000D+00 -.107102096081D-07  .410000000000D+02
     .144006000000D+06  .400000000000D+01
18 16  9 19 18  0  0.0  .559262931347D-03  .375166564481D-11  .000000000000D+00
     .590000000000D+02 -.538437500000D+02  .563666336108D-08  .346170922448D+00
    -.271573662758D-05  .172585275723D-01  .994466245174D-05  .515371654510D+04
     .151200000000D+06 -.167638063431D-06  .299961015175D+01  .800937414169D-07
     .925592933998D+00  .174000000000D+03 -.186024439426D+01 -.890322799804D-08
    -.698957685822D-09  .100000000000D+01  .191500000000D+04  .000000000000D+00
     .240000000000D+01  .000000000000D+00 -.111758708954D-07  .590000000000D+02
     .144006000000D+06  .400000000000D+01
19 16  9 19 18  0  0.0 -.522856134921D-03  .568434188608D-12  .000000000000D+00
     .880000000000D+02  .265000000000D+02  .417088801994D-08  .190104693792D+01
     .133924186230D-05  .105231887428D-01  .108908861876D-04  .515363408089D+04
     .151200000000D+06 -.255182385445D-06  .103580612898D+01 -.158324837685D-06
     .974545179227D+00  .179187500000D+03  .865440005713D+00 -.785961309872D-08
     .551451541599D-09  .100000000000D+01  .191500000000D+04  .000000000000D+00
     .240000000000D+01  .000000000000D+00 -.149011611938D-07  .880000000000D+02
     .144006000000D+06  .400000000000D+01
20 16  9 19 18  0  0.0  .436487141997D-03  .204636307899D-11  .000000000000D+00
     .640000000000D+02 -.554375000000D+02  .543451208353D-08 -.209557135680D+01
    -.284798443317D-05  .464976381045D-02  .926479697227D-05  .515358433151D+04
     .151200000000D+06  .279396772385D-07  .294798709940D+01  .987201929092D-07
     .926872213434D+00  .181093750000D+03  .144236286311D+01 -.842463663422D-08
    -.537522389965D-09  .100000000000D+01  .191500000000D+04  .000000000000D+00
     .240000000000D+01  .000000000000D+00 -.838190317154D-08  .640000000000D+02
     .144006000000D+06  .400000000000D+01
